H-2A R/B                
1 28932U 06002B   26155.00275636  .00006247  00000+0  30250-3 0  9991
2 28932  98.2552 309.6413 0049669 308.2411  51.4355 15.17891973107525
RESURS-DK 1             
1 29228U 06021A   26155.73993647  .00002682  00000+0  15695-3 0  9995
2 29228  69.9333  11.7730 0006086 302.4900  57.5678 15.13159545100698
CZ-4B R/B               
1 29507U 06046C   26155.66036753  .00005127  00000+0  25464-3 0  9992
2 29507  97.5456 200.3066 0031633 328.2337  31.6987 15.17688077 73231
CZ-2C R/B               
1 31114U 07010B   26155.73143223  .00000118  00000+0  73034-4 0  9992
2 31114  98.4089 264.6925 0059710  42.1030 318.4712 14.20273269992075
COSMO-SKYMED 1          
1 31598U 07023A   26155.97042039  .00002482  00000+0  22064-3 0  9993
2 31598  97.8862 347.7245 0001485  81.4524 278.6865 14.97046745 27965
COSMOS 2428             
1 31792U 07029A   26155.75440325 -.00000183  00000+0 -72262-4 0  9995
2 31792  70.9380  20.5827 0007328 158.8925 201.2500 14.12931137976399
SL-16 R/B               
1 31793U 07029B   26155.74038763  .00000207  00000+0  13181-3 0  9993
2 31793  70.9758 349.3949 0002293 257.6500 180.7732 14.14847943977683
KORONAS-FOTON           
1 33504U 09003A   26155.90696824  .00012027  00000+0  24987-3 0  9994
2 33504  82.4288 185.0673 0010316 189.3340 170.7719 15.45460125959208
CZ-2C R/B               
1 37731U 11030B   26155.21438880  .00001565  00000+0  20182-3 0  9991
2 37731  97.8650 110.8357 0053796  69.2961  26.3935 14.81438717802907
H-2A R/B                
1 38341U 12025E   26154.97771839  .00002976  00000+0  26873-3 0  9990
2 38341  98.4819 129.0360 0044713  31.6803 328.7092 14.95639537761110
SHIJIAN-16 (SJ-16)      
1 39358U 13057A   26155.97332875  .00001498  00000+0  14810-3 0  9995
2 39358  74.9731  19.8176 0016963 258.8095 101.1186 14.92583190684520
SL-4 R/B                
1 39679U 14021B   26154.64686584  .00012294  00000+0  25569-3 0  9994
2 39679  51.6063 277.0919 0091705  56.7885 304.1851 15.41642817669522
ALOS-2                  
1 39766U 14029A   26155.55943948  .00001755  00000+0  24177-3 0  9994
2 39766  97.9217 252.9044 0001603  94.8920 265.2475 14.79487434649715
YAOGAN-29               
1 41038U 15069A   26155.96604993  .00000576  00000+0  77409-4 0  9990
2 41038  98.0027 184.5792 0002951  74.6189 285.5350 14.83074525568817
ASTRO-H (HITOMI)        
1 41337U 16012A   26153.29804336  .00002399  00000+0  13655-3 0  9995
2 41337  30.9972 170.3433 0009474 103.6260 256.5434 15.10444105565036
HXMT (HUIYAN)           
1 42758U 17034A   26155.76760025  .00005458  00000+0  26918-3 0  9993
2 42758  43.0139 252.1936 0030237  65.0432 295.3553 15.18378778495770
SAOCOM 1A               
1 43641U 18076A   26155.91664253 -.00000087  00000+0 -43796-5 0  9995
2 43641  97.8880 342.8434 0001512  75.4528 284.6853 14.82163700414285
H-2A R/B                
1 43682U 18084L   26155.23912075  .00020027  00000+0  42717-3 0  9996
2 43682  98.8590  31.3044 0024561  83.7841 276.6200 15.44635255419128
SAOCOM 1B               
1 46265U 20059A   26155.94790547  .00000754  00000+0  10128-3 0  9993
2 46265  97.8884 341.9684 0001480  81.2513 278.8868 14.82162138311678
CSS (TIANHE)            
1 48274U 21035A   26155.88163623  .00023646  00000+0  28405-3 0  9994
2 48274  41.4694  36.8620 0009573 343.5452  16.5074 15.60264942291240
COSMOS 2550             
1 48865U 21056A   26154.26489617  .00005924  00000+0  18579-3 0  9998
2 48865  67.1411 142.0174 0008207 269.6582  90.3631 15.33822322276588
CZ-2C R/B               
1 52794U 22058K   26154.67482348  .00040279  00000+0  46259-3 0  9994
2 52794  50.1849 233.7798 0033356 210.9387 148.9621 15.60905044223535
CZ-2C R/B               
1 54039U 22132E   26155.60254668  .00057386  00000+0  47232-3 0  9996
2 54039  97.2904 162.0786 0017138 122.7860 237.5057 15.70032598203970
GSLV R/B                
1 54149U 22138AN  26155.01801760  .00002993  00000+0  25540-3 0  9992
2 54149  87.3794 137.4067 0020647 190.2739 169.8074 14.97194298196848
XRISM                   
1 57800U 23137A   26153.27519307  .00005615  00000+0  31044-3 0  9998
2 57800  31.0020  96.1840 0007694 175.1081 184.9634 15.12327778150605
ACS3                    
1 59588U 24077B   26155.64301663  .00048144  00000+0  36264-1 0  9995
2 59588  97.1687  77.2322 0043402  64.6834 295.8818 13.93477232106292
SZ-21 MODULE            
1 66515U 25246C   26152.94156862  .00047427  00000+0  30885-3 0  9999
2 66515  41.4749  42.1841 0007101 261.1371  98.8669 15.75039202 31334
